{
  "type": "FeatureCollection",
  "features": [
    {
      "type": "Feature",
      "properties": {
        "norad_id": 31674,
        "name": "FENGYUN 1C DEB",
        "group": "fengyun-1c-debris",
        "lat": -2.483778231209828,
        "lon": -150.79932729948771,
        "alt_km": 720.3865413622143,
        "timestamp": "2025-12-18T21:31:51.285344+00:00",
        "meta_object_name": "FENGYUN 1C DEB",
        "meta_object_id": "1999-025CCG",
        "meta_epoch": "2025-12-17T21:32:12.264288",
        "meta_mean_motion": 14.51972431,
        "meta_eccentricity": 0.00249893,
        "meta_inclination": 98.9275,
        "meta_ra_of_asc_node": 28.5294,
        "meta_arg_of_pericenter": 268.9263,
        "meta_mean_anomaly": 90.9067,
        "meta_ephemeris_type": 0,
        "meta_classification_type": "U",
        "meta_norad_cat_id": 31674,
        "meta_element_set_no": 999,
        "meta_rev_at_epoch": 64689,
        "meta_bstar": 0.0019267574,
        "meta_mean_motion_dot": 7.767e-05,
        "meta_mean_motion_ddot": 0,
        "tle_line1": "1 31674U 99025CCG 25351.89736417  .00007767  00000+0  19268-2 0  9991",
        "tle_line2": "2 31674  98.9275  28.5294 0024989 268.9263  90.9067 14.51972431646892"
      },
      "geometry": {
        "type": "Point",
        "coordinates": [
          -150.79932729948771,
          -2.483778231209828
        ]
      }
    },
    {
      "type": "Feature",
      "properties": {
        "norad_id": 31678,
        "name": "FENGYUN 1C DEB",
        "group": "fengyun-1c-debris",
        "lat": 9.184616804399965,
        "lon": -76.17612973869247,
        "alt_km": 890.1981479836668,
        "timestamp": "2025-12-18T21:31:51.285355+00:00",
        "meta_object_name": "FENGYUN 1C DEB",
        "meta_object_id": "1999-025CCL",
        "meta_epoch": "2025-12-17T13:21:34.128864",
        "meta_mean_motion": 14.53232877,
        "meta_eccentricity": 0.02587183,
        "meta_inclination": 98.7998,
        "meta_ra_of_asc_node": 100.9803,
        "meta_arg_of_pericenter": 13.2727,
        "meta_mean_anomaly": 347.5106,
        "meta_ephemeris_type": 0,
        "meta_classification_type": "U",
        "meta_norad_cat_id": 31678,
        "meta_element_set_no": 999,
        "meta_rev_at_epoch": 96909,
        "meta_bstar": 0.00061595616,
        "meta_mean_motion_dot": 3.92e-05,
        "meta_mean_motion_ddot": 0,
        "tle_line1": "1 31678U 99025CCL 25351.55664501  .00003920  00000+0  61596-3 0  9991",
        "tle_line2": "2 31678  98.7998 100.9803 0258718  13.2727 347.5106 14.53232877969092"
      },
      "geometry": {
        "type": "Point",
        "coordinates": [
          -76.17612973869247,
          9.184616804399965
        ]
      }
    },
    {
      "type": "Feature",
      "properties": {
        "norad_id": 31680,
        "name": "FENGYUN 1C DEB",
        "group": "fengyun-1c-debris",
        "lat": -64.19747708958371,
        "lon": -98.70297678855569,
        "alt_km": 452.3676574563651,
        "timestamp": "2025-12-18T21:31:51.285364+00:00",
        "meta_object_name": "FENGYUN 1C DEB",
        "meta_object_id": "1999-025CCN",
        "meta_epoch": "2025-12-16T13:18:49.410720",
        "meta_mean_motion": 15.24349933,
        "meta_eccentricity": 0.00750456,
        "meta_inclination": 99.8356,
        "meta_ra_of_asc_node": 99.2579,
        "meta_arg_of_pericenter": 277.5112,
        "meta_mean_anomaly": 81.7597,
        "meta_ephemeris_type": 0,
        "meta_classification_type": "U",
        "meta_norad_cat_id": 31680,
        "meta_element_set_no": 999,
        "meta_rev_at_epoch": 230,
        "meta_bstar": 0.0010112684,
        "meta_mean_motion_dot": 0.00026773,
        "meta_mean_motion_ddot": 0,
        "tle_line1": "1 31680U 99025CCN 25350.55473855  .00026773  00000+0  10113-2 0  9992",
        "tle_line2": "2 31680  99.8356  99.2579 0075045 277.5112  81.7597 15.24349933  2302"
      },
      "geometry": {
        "type": "Point",
        "coordinates": [
          -98.70297678855569,
          -64.19747708958371
        ]
      }
    },
    {
      "type": "Feature",
      "properties": {
        "norad_id": 31685,
        "name": "FENGYUN 1C DEB",
        "group": "fengyun-1c-debris",
        "lat": 38.14915889435746,
        "lon": 9.999491004921609,
        "alt_km": 869.1349460588835,
        "timestamp": "2025-12-18T21:31:51.285375+00:00",
        "meta_object_name": "FENGYUN 1C DEB",
        "meta_object_id": "1999-025CCT",
        "meta_epoch": "2025-12-18T07:43:10.330176",
        "meta_mean_motion": 14.09660356,
        "meta_eccentricity": 0.00161583,
        "meta_inclination": 98.7304,
        "meta_ra_of_asc_node": 16.3739,
        "meta_arg_of_pericenter": 209.3493,
        "meta_mean_anomaly": 150.6771,
        "meta_ephemeris_type": 0,
        "meta_classification_type": "U",
        "meta_norad_cat_id": 31685,
        "meta_element_set_no": 999,
        "meta_rev_at_epoch": 95168,
        "meta_bstar": 4.0808912e-05,
        "meta_mean_motion_dot": 2.9e-07,
        "meta_mean_motion_ddot": 0,
        "tle_line1": "1 31685U 99025CCT 25352.32164734  .00000029  00000+0  40809-4 0  9990",
        "tle_line2": "2 31685  98.7304  16.3739 0016158 209.3493 150.6771 14.09660356951682"
      },
      "geometry": {
        "type": "Point",
        "coordinates": [
          9.999491004921609,
          38.14915889435746
        ]
      }
    },
    {
      "type": "Feature",
      "properties": {
        "norad_id": 31686,
        "name": "FENGYUN 1C DEB",
        "group": "fengyun-1c-debris",
        "lat": 66.81454010670632,
        "lon": -95.93733046594365,
        "alt_km": 496.6863468295942,
        "timestamp": "2025-12-18T21:31:51.285385+00:00",
        "meta_object_name": "FENGYUN 1C DEB",
        "meta_object_id": "1999-025CCU",
        "meta_epoch": "2025-12-15T11:29:17.235744",
        "meta_mean_motion": 14.72154688,
        "meta_eccentricity": 0.02834015,
        "meta_inclination": 98.1523,
        "meta_ra_of_asc_node": 61.0769,
        "meta_arg_of_pericenter": 80.7699,
        "meta_mean_anomaly": 282.5442,
        "meta_ephemeris_type": 0,
        "meta_classification_type": "U",
        "meta_norad_cat_id": 31686,
        "meta_element_set_no": 999,
        "meta_rev_at_epoch": 97859,
        "meta_bstar": 0.00047059205,
        "meta_mean_motion_dot": 5.561e-05,
        "meta_mean_motion_ddot": 0,
        "tle_line1": "1 31686U 99025CCU 25349.47867171  .00005561  00000+0  47059-3 0  9997",
        "tle_line2": "2 31686  98.1523  61.0769 0283401  80.7699 282.5442 14.72154688978591"
      },
      "geometry": {
        "type": "Point",
        "coordinates": [
          -95.93733046594365,
          66.81454010670632
        ]
      }
    },
    {
      "type": "Feature",
      "properties": {
        "norad_id": 31688,
        "name": "FENGYUN 1C DEB",
        "group": "fengyun-1c-debris",
        "lat": 1.2223448000150723,
        "lon": 46.67855391241014,
        "alt_km": 918.1314093002411,
        "timestamp": "2025-12-18T21:31:51.285395+00:00",
        "meta_object_name": "FENGYUN 1C DEB",
        "meta_object_id": "1999-025CCW",
        "meta_epoch": "2025-12-18T02:41:18.686976",
        "meta_mean_motion": 14.02315634,
        "meta_eccentricity": 0.00756682,
        "meta_inclination": 98.9636,
        "meta_ra_of_asc_node": 46.0994,
        "meta_arg_of_pericenter": 126.5004,
        "meta_mean_anomaly": 234.3164,
        "meta_ephemeris_type": 0,
        "meta_classification_type": "U",
        "meta_norad_cat_id": 31688,
        "meta_element_set_no": 999,
        "meta_rev_at_epoch": 95353,
        "meta_bstar": -2.3016306e-05,
        "meta_mean_motion_dot": -7.9e-07,
        "meta_mean_motion_ddot": 0,
        "tle_line1": "1 31688U 99025CCW 25352.11202184 -.00000079  00000+0 -23016-4 0  9990",
        "tle_line2": "2 31688  98.9636  46.0994 0075668 126.5004 234.3164 14.02315634953538"
      },
      "geometry": {
        "type": "Point",
        "coordinates": [
          46.67855391241014,
          1.2223448000150723
        ]
      }
    },
    {
      "type": "Feature",
      "properties": {
        "norad_id": 31691,
        "name": "FENGYUN 1C DEB",
        "group": "fengyun-1c-debris",
        "lat": -2.7627212270158203,
        "lon": 79.84628063847893,
        "alt_km": 839.2136674165449,
        "timestamp": "2025-12-18T21:31:51.285406+00:00",
        "meta_object_name": "FENGYUN 1C DEB",
        "meta_object_id": "1999-025CCZ",
        "meta_epoch": "2025-12-17T11:52:08.430528",
        "meta_mean_motion": 14.26190936,
        "meta_eccentricity": 0.00616801,
        "meta_inclination": 98.8819,
        "meta_ra_of_asc_node": 77.9922,
        "meta_arg_of_pericenter": 225.8341,
        "meta_mean_anomaly": 133.776,
        "meta_ephemeris_type": 0,
        "meta_classification_type": "U",
        "meta_norad_cat_id": 31691,
        "meta_element_set_no": 999,
        "meta_rev_at_epoch": 64179,
        "meta_bstar": 0.001756178,
        "meta_mean_motion_dot": 4.247e-05,
        "meta_mean_motion_ddot": 0,
        "tle_line1": "1 31691U 99025CCZ 25351.49454202  .00004247  00000+0  17562-2 0  9990",
        "tle_line2": "2 31691  98.8819  77.9922 0061680 225.8341 133.7760 14.26190936641792"
      },
      "geometry": {
        "type": "Point",
        "coordinates": [
          79.84628063847893,
          -2.7627212270158203
        ]
      }
    }
  ]
}